*******************************************************************************
Ephemeris / WWW_USER Mon Oct 15 10:57:58 2018 Pasadena, USA      / Horizons    
*******************************************************************************
Target body name: Mercury (199)                   {source: DE431mx}
Center body name: Solar System Barycenter (0)     {source: DE431mx}
Center-site name: BODY CENTER
*******************************************************************************
Start time      : A.D. 2018-Oct-07 00:00:00.0000 TDB
Stop  time      : A.D. 2018-Nov-06 00:00:00.0000 TDB
Step-size       : 1440 minutes
*******************************************************************************
Center geodetic : 0.00000000,0.00000000,0.0000000 {E-lon(deg),Lat(deg),Alt(km)}
Center cylindric: 0.00000000,0.00000000,0.0000000 {E-lon(deg),Dxy(km),Dz(km)}
Center radii    : (undefined)                                                  
Output units    : AU-D                                                         
Output type     : GEOMETRIC cartesian states
Output format   : 2 (position and velocity)
Reference frame : ICRF/J2000.0                                                 
Coordinate systm: Ecliptic and Mean Equinox of Reference Epoch                 
*******************************************************************************
            JDTDB,            Calendar Date (TDB),                      X,                      Y,                      Z,                     VX,                     VY,                     VZ,
**************************************************************************************************************************************************************************************************
$$SOE
2458398.500000000, A.D. 2018-Oct-07 00:00:00.0000, -2.851753220544115E-01, -3.467519760898960E-01, -2.846326949467816E-03,  1.620184264812026E-02, -1.633622699527580E-02, -2.821940823929471E-03,
2458399.500000000, A.D. 2018-Oct-08 00:00:00.0000, -2.685352857667309E-01, -3.625251099400382E-01, -5.662454277790873E-03,  1.706723681166251E-02, -1.520485311903900E-02, -2.808881447214260E-03,
2458400.500000000, A.D. 2018-Oct-09 00:00:00.0000, -2.510627085491971E-01, -3.771517529379190E-01, -8.461273068775295E-03,  1.786704779589608E-02, -1.404368261523191E-02, -2.787370794894355E-03,
2458401.500000000, A.D. 2018-Oct-10 00:00:00.0000, -2.328228185934673E-01, -3.906033797599134E-01, -1.123446849575137E-02,  1.860197021815283E-02, -1.285521848434297E-02, -2.757677119470889E-03,
2458402.500000000, A.D. 2018-Oct-11 00:00:00.0000, -2.138801978256535E-01, -4.028538544608614E-01, -1.397398026440086E-02,  1.927259979627735E-02, -1.164174161133437E-02, -2.720041450765680E-03,
2458403.500000000, A.D. 2018-Oct-12 00:00:00.0000, -1.942988870114235E-01, -4.138792233990398E-01, -1.667197604979603E-02,  1.987942130182428E-02, -1.040534051055129E-02, -2.674678921325740E-03,
2458404.500000000, A.D. 2018-Oct-13 00:00:00.0000, -1.741425018981730E-01, -4.236575369435728E-01, -1.932082627282657E-02,  2.042279845238355E-02, -9.147939192029718E-03, -2.621780116213209E-03,
2458405.500000000, A.D. 2018-Oct-14 00:00:00.0000, -1.534743586808411E-01, -4.321686982270908E-01, -2.191308023125118E-02,  2.090296530646647E-02, -7.871323434203551E-03, -2.561512430419179E-03,
2458406.500000000, A.D. 2018-Oct-15 00:00:00.0000, -1.323576074722382E-01, -4.393943374970845E-01, -2.444144358818521E-02,  2.132001880678644E-02, -6.577165758485580E-03, -2.494021425555131E-03,
2458407.500000000, A.D. 2018-Oct-16 00:00:00.0000, -1.108553727766392E-01, -4.453177109185471E-01, -2.689875721611897E-02,  2.167391218861134E-02, -5.267049408145004E-03, -2.419432184542312E-03,
2458408.500000000, A.D. 2018-Oct-17 00:00:00.0000, -8.903090021719566E-02, -4.499236229857439E-01, -2.927797739640344E-02,  2.196444903159524E-02, -3.942491639469906E-03, -2.337850669137513E-03,
2458409.500000000, A.D. 2018-Oct-18 00:00:00.0000, -6.694770896137131E-02, -4.531983720117517E-01, -3.157215738177323E-02,  2.219127778841874E-02, -2.604966638976491E-03, -2.249365090643670E-03,
2458410.500000000, A.D. 2018-Oct-19 00:00:00.0000, -4.466974942983433E-02, -4.551297184815911E-01, -3.377443034243644E-02,  2.235388667387174E-02, -1.255928387575858E-03, -2.154047309352793E-03,
2458411.500000000, A.D. 2018-Oct-20 00:00:00.0000, -2.226156596657326E-02, -4.557068763801593E-01, -3.587799373438097E-02,  2.245159884582971E-02,  1.031661980295250E-04, -2.051954283420389E-03,
2458412.500000000, A.D. 2018-Oct-21 00:00:00.0000,  2.115358071129944E-04, -4.549205279422580E-01, -3.787609515189029E-02,  2.248356785703183E-02,  1.470833504309620E-03, -1.943129593215918E-03,
2458413.500000000, A.D. 2018-Oct-22 00:00:00.0000,  2.268331723540750E-02, -4.527628626217761E-01, -3.976201975514675E-02,  2.244877340585597E-02,  2.845538482588606E-03, -1.827605072960171E-03,
2458414.500000000, A.D. 2018-Oct-23 00:00:00.0000,  4.508643080267578E-02, -4.492276414436671E-01, -4.152907939875187E-02,  2.234601746773343E-02,  4.225668557407336E-03, -1.705402587866491E-03,
2458415.500000000, A.D. 2018-Oct-24 00:00:00.0000,  6.735224068624675E-02, -4.443102882888401E-01, -4.317060362876001E-02,  2.217392094899841E-02,  5.609505784188289E-03, -1.576536002265171E-03,
2458416.500000000, A.D. 2018-Oct-25 00:00:00.0000,  8.941064030917202E-02, -4.380080100711543E-01, -4.467993276537022E-02,  2.193092107467596E-02,  6.995196835112160E-03, -1.441013392522734E-03,
2458417.500000000, A.D. 2018-Oct-26 00:00:00.0000,  1.111898677664007E-01, -4.303199481992684E-01, -4.605041334692411E-02,  2.161526980421032E-02,  8.380720367078940E-03, -1.298839568181848E-03,
2458418.500000000, A.D. 2018-Oct-27 00:00:00.0000,  1.326163203397638E-01, -4.212473641746778E-01, -4.727539627969982E-02,  2.122503366812691E-02,  9.763851300956762E-03, -1.150018975844933E-03,
2458419.500000000, A.D. 2018-Oct-28 00:00:00.0000,  1.536143697680956E-01, -4.107938626593138E-01, -4.834823811875108E-02,  2.075809553834612E-02,  1.114212151959122E-02, -9.945590730833290E-04,
2458420.500000000, A.D. 2018-Oct-29 00:00:00.0000,  1.741061805218345E-01, -3.989656558468738E-01, -4.926230599944446E-02,  2.021215899014461E-02,  1.251277647703467E-02, -8.324742742083662E-04,
2458421.500000000, A.D. 2018-Oct-30 00:00:00.0000,  1.940115340747295E-01, -3.857718734823193E-01, -5.001098684923296E-02,  1.958475608997669E-02,  1.387272720857138E-02, -6.637905861418348E-04,
2458422.500000000, A.D. 2018-Oct-31 00:00:00.0000,  2.132476631026824E-01, -3.712249233780083E-01, -5.058770163638471E-02,  1.887325965638206E-02,  1.521849724797488E-02, -4.885510707875811E-04,
2458423.500000000, A.D. 2018-Nov-01 00:00:00.0000,  2.317291007111000E-01, -3.553409077479789E-01, -5.098592555849862E-02,  1.807490129709731E-02,  1.654616400556467E-02, -3.068222899292397E-04,
2458424.500000000, A.D. 2018-Nov-02 00:00:00.0000,  2.493675512432655E-01, -3.381401010869001E-01, -5.119921523985489E-02,  1.718679683008263E-02,  1.785129425236947E-02, -1.187019091258504E-04,
2458425.500000000, A.D. 2018-Nov-03 00:00:00.0000,  2.660717910043704E-01, -3.196474956033841E-01, -5.122124419327963E-02,  1.620598105421600E-02,  1.912887351127396E-02,  7.567234278890173E-05,
2458426.500000000, A.D. 2018-Nov-04 00:00:00.0000,  2.817476094038515E-01, -2.998934203027849E-01, -5.104584800807126E-02,  1.512945424919975E-02,  2.037322940075496E-02,  2.761121440355052E-04,
2458427.500000000, A.D. 2018-Nov-05 00:00:00.0000,  2.962978036276859E-01, -2.789142395974255E-01, -5.066708094713541E-02,  1.395424325153411E-02,  2.157794934345004E-02,  4.823662525658389E-04,
2458428.500000000, A.D. 2018-Nov-06 00:00:00.0000,  3.096222430516670E-01, -2.567531366605773E-01, -5.007928586674202E-02,  1.267748046431547E-02,  2.273579358169812E-02,  6.941061500398819E-04,
$$EOE
**************************************************************************************************************************************************************************************************
Coordinate system description:

  Ecliptic and Mean Equinox of Reference Epoch

    Reference epoch: J2000.0
    XY-plane: plane of the Earth's orbit at the reference epoch
              Note: obliquity of 84381.448 arcseconds wrt ICRF equator (IAU76)
    X-axis  : out along ascending node of instantaneous plane of the Earth's
              orbit and the Earth's mean equator at the reference epoch
    Z-axis  : perpendicular to the xy-plane in the directional (+ or -) sense
              of Earth's north pole at the reference epoch.

  Symbol meaning [1 au= 149597870.700 km, 1 day= 86400.0 s]:

    JDTDB    Julian Day Number, Barycentric Dynamical Time
      X      X-component of position vector (au)                               
      Y      Y-component of position vector (au)                               
      Z      Z-component of position vector (au)                               
      VX     X-component of velocity vector (au/day)                           
      VY     Y-component of velocity vector (au/day)                           
      VZ     Z-component of velocity vector (au/day)                           

Geometric states/elements have no aberrations applied.

 Computations by ...
     Solar System Dynamics Group, Horizons On-Line Ephemeris System
     4800 Oak Grove Drive, Jet Propulsion Laboratory
     Pasadena, CA  91109   USA
     Information: http://ssd.jpl.nasa.gov/
     Connect    : telnet://ssd.jpl.nasa.gov:6775  (via browser)
                  http://ssd.jpl.nasa.gov/?horizons
                  telnet ssd.jpl.nasa.gov 6775    (via command-line)
     Author     : Jon.D.Giorgini@jpl.nasa.gov
*******************************************************************************
